[Satellite]
VERSION=1.1
NAME=CZ-6A DEB
NICKNAME=CZ-6A DEB
TLE1=1 54556U 22151LG  22342.49347179  .00007767  00000+0  22967-2 0  9997
TLE2=2 54556  98.7232 347.6940 0124598 216.0168 143.2576 14.39288507  3529
STATUS=0
